MALLIGYONG-1            
1 58400U 23179A   23362.84157393  .00007265  00000+0  32306-3 0  9991
2 58400  97.4257 247.1268 0016680 142.2001 218.0410 15.21677822  5668
